[{"OBJECT_NAME":"D-STAR ONE (SPARROW)","OBJECT_ID":"2018-111F","EPOCH":"2026-03-09T17:46:18.675552","MEAN_MOTION":15.54846146,"ECCENTRICITY":0.00041297,"INCLINATION":97.6111,"RA_OF_ASC_NODE":1.8771,"ARG_OF_PERICENTER":38.9805,"MEAN_ANOMALY":321.1745,"EPHEMERIS_TYPE":0,"CLASSIFICATION_TYPE":"U","NORAD_CAT_ID":43881,"ELEMENT_SET_NO":999,"REV_AT_EPOCH":39583,"BSTAR":0.0010829564,"MEAN_MOTION_DOT":0.00072664,"MEAN_MOTION_DDOT":0},{"OBJECT_NAME":"STARLINK-1420","OBJECT_ID":"2020-035AQ","EPOCH":"2026-03-10T00:00:02.999808","MEAN_MOTION":15.53743401,"ECCENTRICITY":0.00043485,"INCLINATION":53.0536,"RA_OF_ASC_NODE":20.9202,"ARG_OF_PERICENTER":112.4673,"MEAN_ANOMALY":249.9349,"EPHEMERIS_TYPE":0,"CLASSIFICATION_TYPE":"U","NORAD_CAT_ID":45695,"ELEMENT_SET_NO":999,"REV_AT_EPOCH":587,"BSTAR":0.0013975342,"MEAN_MOTION_DOT":0.00091715,"MEAN_MOTION_DDOT":0}]
